{"type": "FeatureCollection", "features": [ {"type": "Feature", "properties": {"norad_id": 30770, "name": "FENGYUN 1C DEB", "group": "fengyun-1c-debris", "lat": -66.56563618833913, "lon": 149.42232138447844, "alt_km": 840.8714412438394, "timestamp": "2025-12-09T20:37:09.565829+00:00", "meta": {"OBJECT_NAME": "FENGYUN 1C DEB", "OBJECT_ID": "1999-025AUG", "EPOCH": "2025-12-09T11:41:45.436416", "MEAN_MOTION": 14.15678594, "ECCENTRICITY": 0.00128306, "INCLINATION": 98.6543, "RA_OF_ASC_NODE": 349.6325, "ARG_OF_PERICENTER": 295.9818, "MEAN_ANOMALY": 218.3887, "EPHEMERIS_TYPE": 0, "CLASSIFICATION_TYPE": "U", "NORAD_CAT_ID": 30770, "ELEMENT_SET_NO": 999, "REV_AT_EPOCH": 96861, "BSTAR": 0.00049416587, "MEAN_MOTION_DOT": 9.27e-06, "MEAN_MOTION_DDOT": 0}, "tle": {"line1": "1 30770U 99025AUG 25343.48733144  .00000927  00000+0  49417-3 0  9998", "line2": "2 30770  98.6543 349.6325 0012830 295.9818 218.3887 14.15678594968619"}}, "geometry": {"type": "Point", "coordinates": [149.42232138447844, -66.56563618833913]}}, {"type": "Feature", "properties": {"norad_id": 30771, "name": "FENGYUN 1C DEB", "group": "fengyun-1c-debris", "lat": 24.797948008783393, "lon": -45.20393044929345, "alt_km": 743.5694613737869, "timestamp": "2025-12-09T20:37:09.565842+00:00", "meta": {"OBJECT_NAME": "FENGYUN 1C DEB", "OBJECT_ID": "1999-025AUH", "EPOCH": "2025-12-09T12:10:59.674368", "MEAN_MOTION": 14.43079405, "ECCENTRICITY": 0.00234517, "INCLINATION": 98.9061, "RA_OF_ASC_NODE": 318.5835, "ARG_OF_PERICENTER": 309.9915, "MEAN_ANOMALY": 49.9214, "EPHEMERIS_TYPE": 0, "CLASSIFICATION_TYPE": "U", "NORAD_CAT_ID": 30771, "ELEMENT_SET_NO": 999, "REV_AT_EPOCH": 97017, "BSTAR": 0.0039666865, "MEAN_MOTION_DOT": 0.00013325, "MEAN_MOTION_DDOT": 0}, "tle": {"line1": "1 30771U 99025AUH 25343.50763512  .00013325  00000+0  39667-2 0  9995", "line2": "2 30771  98.9061 318.5835 0023451 309.9915  49.9214 14.43079405970177"}}, "geometry": {"type": "Point", "coordinates": [-45.20393044929345, 24.797948008783393]}}, {"type": "Feature", "properties": {"norad_id": 30802, "name": "FENGYUN 1C DEB", "group": "fengyun-1c-debris", "lat": -79.20635456611386, "lon": -164.09465836348232, "alt_km": 802.0804584255029, "timestamp": "2025-12-09T20:37:09.565852+00:00", "meta": {"OBJECT_NAME": "FENGYUN 1C DEB", "OBJECT_ID": "1999-025AUL", "EPOCH": "2025-12-09T04:35:28.258656", "MEAN_MOTION": 14.32400557, "ECCENTRICITY": 0.0018326, "INCLINATION": 98.8371, "RA_OF_ASC_NODE": 69.9139, "ARG_OF_PERICENTER": 53.275, "MEAN_ANOMALY": 8.7485, "EPHEMERIS_TYPE": 0, "CLASSIFICATION_TYPE": "U", "NORAD_CAT_ID": 30802, "ELEMENT_SET_NO": 999, "REV_AT_EPOCH": 97152, "BSTAR": 0.0020733513, "MEAN_MOTION_DOT": 5.576e-05, "MEAN_MOTION_DDOT": 0}, "tle": {"line1": "1 30802U 99025AUL 25343.19129929  .00005576  00000+0  20734-2 0  9997", "line2": "2 30802  98.8371  69.9139 0018326  53.2750   8.7485 14.32400557971527"}}, "geometry": {"type": "Point", "coordinates": [-164.09465836348232, -79.20635456611386]}}, {"type": "Feature", "properties": {"norad_id": 30803, "name": "FENGYUN 1C DEB", "group": "fengyun-1c-debris", "lat": 80.06457621554713, "lon": -51.468528683253915, "alt_km": 889.4684297439771, "timestamp": "2025-12-09T20:37:09.565863+00:00", "meta": {"OBJECT_NAME": "FENGYUN 1C DEB", "OBJECT_ID": "1999-025AUM", "EPOCH": "2025-12-09T14:07:15.103200", "MEAN_MOTION": 14.11222945, "ECCENTRICITY": 0.01072798, "INCLINATION": 99.2459, "RA_OF_ASC_NODE": 16.6753, "ARG_OF_PERICENTER": 210.1571, "MEAN_ANOMALY": 302.3853, "EPHEMERIS_TYPE": 0, "CLASSIFICATION_TYPE": "U", "NORAD_CAT_ID": 30803, "ELEMENT_SET_NO": 999, "REV_AT_EPOCH": 95954, "BSTAR": 0.0018457811, "MEAN_MOTION_DOT": 3.469e-05, "MEAN_MOTION_DDOT": 0}, "tle": {"line1": "1 30803U 99025AUM 25343.58836925  .00003469  00000+0  18458-2 0  9991", "line2": "2 30803  99.2459  16.6753 0107279 210.1571 302.3853 14.11222945959542"}}, "geometry": {"type": "Point", "coordinates": [-51.468528683253915, 80.06457621554713]}}, {"type": "Feature", "properties": {"norad_id": 30804, "name": "FENGYUN 1C DEB", "group": "fengyun-1c-debris", "lat": 26.161855767764962, "lon": 44.69738813682076, "alt_km": 840.1377404772802, "timestamp": "2025-12-09T20:37:09.565873+00:00", "meta": {"OBJECT_NAME": "FENGYUN 1C DEB", "OBJECT_ID": "1999-025AUN", "EPOCH": "2025-12-09T10:41:50.893152", "MEAN_MOTION": 14.54581236, "ECCENTRICITY": 0.01854432, "INCLINATION": 98.8951, "RA_OF_ASC_NODE": 48.67, "ARG_OF_PERICENTER": 200.5472, "MEAN_ANOMALY": 182.7627, "EPHEMERIS_TYPE": 0, "CLASSIFICATION_TYPE": "U", "NORAD_CAT_ID": 30804, "ELEMENT_SET_NO": 999, "REV_AT_EPOCH": 99429, "BSTAR": 0.00084855522, "MEAN_MOTION_DOT": 4.499e-05, "MEAN_MOTION_DDOT": 0}, "tle": {"line1": "1 30804U 99025AUN 25343.44572793  .00004499  00000+0  84856-3 0  9997", "line2": "2 30804  98.8951  48.6700 0185443 200.5472 182.7627 14.54581236994292"}}, "geometry": {"type": "Point", "coordinates": [44.69738813682076, 26.161855767764962]}}, {"type": "Feature", "properties": {"norad_id": 30805, "name": "FENGYUN 1C DEB", "group": "fengyun-1c-debris", "lat": -7.839901754370634, "lon": 27.832579209207463, "alt_km": 862.076669096763, "timestamp": "2025-12-09T20:37:09.565883+00:00", "meta": {"OBJECT_NAME": "FENGYUN 1C DEB", "OBJECT_ID": "1999-025AUP", "EPOCH": "2025-12-09T14:34:21.131328", "MEAN_MOTION": 14.02883985, "ECCENTRICITY": 0.00695131, "INCLINATION": 98.8207, "RA_OF_ASC_NODE": 26.3634, "ARG_OF_PERICENTER": 293.0054, "MEAN_ANOMALY": 226.752, "EPHEMERIS_TYPE": 0, "CLASSIFICATION_TYPE": "U", "NORAD_CAT_ID": 30805, "ELEMENT_SET_NO": 999, "REV_AT_EPOCH": 95916, "BSTAR": 0.0011034256, "MEAN_MOTION_DOT": 1.703e-05, "MEAN_MOTION_DDOT": 0}, "tle": {"line1": "1 30805U 99025AUP 25343.60718902  .00001703  00000+0  11034-2 0  9992", "line2": "2 30805  98.8207  26.3634 0069513 293.0054 226.7520 14.02883985959165"}}, "geometry": {"type": "Point", "coordinates": [27.832579209207463, -7.839901754370634]}}, {"type": "Feature", "properties": {"norad_id": 30806, "name": "FENGYUN 1C DEB", "group": "fengyun-1c-debris", "lat": -18.772541554592266, "lon": 13.665290710017636, "alt_km": 1184.3932735521375, "timestamp": "2025-12-09T20:37:09.565893+00:00", "meta": {"OBJECT_NAME": "FENGYUN 1C DEB", "OBJECT_ID": "1999-025AUQ", "EPOCH": "2025-12-06T12:52:53.893632", "MEAN_MOTION": 13.70403207, "ECCENTRICITY": 0.02687402, "INCLINATION": 99.0369, "RA_OF_ASC_NODE": 7.4386, "ARG_OF_PERICENTER": 146.6144, "MEAN_ANOMALY": 13.4768, "EPHEMERIS_TYPE": 0, "CLASSIFICATION_TYPE": "U", "NORAD_CAT_ID": 30806, "ELEMENT_SET_NO": 999, "REV_AT_EPOCH": 93610, "BSTAR": 0.0012176938, "MEAN_MOTION_DOT": 1.35e-05, "MEAN_MOTION_DDOT": 0}, "tle": {"line1": "1 30806U 99025AUQ 25340.53673488  .00001350  00000+0  12177-2 0  9998", "line2": "2 30806  99.0369   7.4386 0268740 146.6144  13.4768 13.70403207936101"}}, "geometry": {"type": "Point", "coordinates": [13.665290710017636, -18.772541554592266]}}, {"type": "Feature", "properties": {"norad_id": 30809, "name": "FENGYUN 1C DEB", "group": "fengyun-1c-debris", "lat": -79.65768570806061, "lon": -165.0912579532738, "alt_km": 798.0754954658823, "timestamp": "2025-12-09T20:37:09.565903+00:00", "meta": {"OBJECT_NAME": "FENGYUN 1C DEB", "OBJECT_ID": "1999-025AUT", "EPOCH": "2025-12-09T04:15:56.901888", "MEAN_MOTION": 14.29173831, "ECCENTRICITY": 0.00524835, "INCLINATION": 98.7889, "RA_OF_ASC_NODE": 72.1897, "ARG_OF_PERICENTER": 181.8655, "MEAN_ANOMALY": 178.2338, "EPHEMERIS_TYPE": 0, "CLASSIFICATION_TYPE": "U", "NORAD_CAT_ID": 30809, "ELEMENT_SET_NO": 999, "REV_AT_EPOCH": 97036, "BSTAR": 0.0024645446, "MEAN_MOTION_DOT": 6.309e-05, "MEAN_MOTION_DDOT": 0}, "tle": {"line1": "1 30809U 99025AUT 25343.17774192  .00006309  00000+0  24645-2 0  9990", "line2": "2 30809  98.7889  72.1897 0052483 181.8655 178.2338 14.29173831970367"}}, "geometry": {"type": "Point", "coordinates": [-165.0912579532738, -79.65768570806061]}}, {"type": "Feature", "properties": {"norad_id": 30810, "name": "FENGYUN 1C DEB", "group": "fengyun-1c-debris", "lat": -13.010560620918517, "lon": -26.08297075406634, "alt_km": 965.6575133587239, "timestamp": "2025-12-09T20:37:09.565913+00:00", "meta": {"OBJECT_NAME": "FENGYUN 1C DEB", "OBJECT_ID": "1999-025AUU", "EPOCH": "2025-12-09T11:10:04.959552", "MEAN_MOTION": 14.04100739, "ECCENTRICITY": 0.01797746, "INCLINATION": 98.6646, "RA_OF_ASC_NODE": 155.5604, "ARG_OF_PERICENTER": 64.6403, "MEAN_ANOMALY": 297.326, "EPHEMERIS_TYPE": 0, "CLASSIFICATION_TYPE": "U", "NORAD_CAT_ID": 30810, "ELEMENT_SET_NO": 999, "REV_AT_EPOCH": 94337, "BSTAR": 0.0035386372, "MEAN_MOTION_DOT": 6.436e-05, "MEAN_MOTION_DDOT": 0}, "tle": {"line1": "1 30810U 99025AUU 25343.46533518  .00006436  00000+0  35386-2 0  9994", "line2": "2 30810  98.6646 155.5604 0179774  64.6403 297.3260 14.04100739943371"}}, "geometry": {"type": "Point", "coordinates": [-26.08297075406634, -13.010560620918517]}}, {"type": "Feature", "properties": {"norad_id": 30811, "name": "FENGYUN 1C DEB", "group": "fengyun-1c-debris", "lat": -16.69996342991638, "lon": -159.15497132377337, "alt_km": 1196.622228186934, "timestamp": "2025-12-09T20:37:09.565923+00:00", "meta": {"OBJECT_NAME": "FENGYUN 1C DEB", "OBJECT_ID": "1999-025AUV", "EPOCH": "2025-12-09T02:02:43.965312", "MEAN_MOTION": 13.61825589, "ECCENTRICITY": 0.02786243, "INCLINATION": 98.783, "RA_OF_ASC_NODE": 22.8058, "ARG_OF_PERICENTER": 55.7667, "MEAN_ANOMALY": 306.954, "EPHEMERIS_TYPE": 0, "CLASSIFICATION_TYPE": "U", "NORAD_CAT_ID": 30811, "ELEMENT_SET_NO": 999, "REV_AT_EPOCH": 92817, "BSTAR": 0.0019405247, "MEAN_MOTION_DOT": 1.896e-05, "MEAN_MOTION_DDOT": 0}, "tle": {"line1": "1 30811U 99025AUV 25343.08523108  .00001896  00000+0  19405-2 0  9996", "line2": "2 30811  98.7830  22.8058 0278624  55.7667 306.9540 13.61825589928172"}}, "geometry": {"type": "Point", "coordinates": [-159.15497132377337, -16.69996342991638]}}]}